ONEWEB-0326             
1 49195U 21083K   23278.74662193  .00000076  00000+0  15896-3 0  9996
2 49195  87.9221 171.4600 0001371  93.5930 266.5359 13.18686219100124
ONEWEB-0327             
1 49196U 21083L   23279.09965094 -.00000830  00000+0 -21392-2 0  9999
2 49196  87.9282 171.3877 0001618  88.8947 271.2371 13.18686373101473
ONEWEB-0328             
1 49197U 21083M   23278.71240753 -.00000009  00000+0 -58179-4 0  9999
2 49197  87.9049 156.3233 0001466  73.2567 286.8723 13.13473348101532
ONEWEB-0331             
1 49198U 21083N   23279.11967746  .00000076  00000+0  16049-3 0  9994
2 49198  87.9219 171.4018 0001599  78.9299 281.2013 13.18687445101465
ONEWEB-0333             
1 49199U 21083P   23279.16419554 -.00000109  00000+0 -33220-3 0  9998
2 49199  87.9048 156.2362 0001917  73.7670 286.3670 13.13471826102891
ONEWEB-0334             
1 49200U 21083Q   23278.89392477  .00000054  00000+0  10144-3 0  9991
2 49200  87.9147 110.6568 0002630  82.0265 278.1167 13.20771521106732
ONEWEB-0335             
1 49201U 21083R   23279.15996171 -.00000151  00000+0 -44886-3 0  9993
2 49201  87.9046 156.2266 0001605  71.8229 288.3075 13.13469408102905
ONEWEB-0336             
1 49202U 21083S   23278.89969623 -.00000060  00000+0 -19979-3 0  9990
2 49202  87.9053 156.2759 0001860  75.1090 285.0245 13.13469582101575
ONEWEB-0337             
1 49203U 21083T   23278.90812992 -.00000090  00000+0 -28265-3 0  9990
2 49203  87.9050 156.2728 0001516  73.5028 286.6267 13.13466041101578
ONEWEB-0338             
1 49204U 21083U   23279.43052473  .00000065  00000+0  12743-3 0  9994
2 49204  87.9152 110.5185 0002045  72.6239 287.5118 13.20772288108128
ONEWEB-0339             
1 49205U 21083V   23279.22661730 -.00000161  00000+0 -47590-3 0  9991
2 49205  87.9047 156.2134 0001592  71.4597 288.6705 13.13469980102899
ONEWEB-0340             
1 49206U 21083W   23278.72556884  .00000424  00000+0  10419-2 0  9998
2 49206  87.9219 171.4726 0001587  78.7376 281.3934 13.18686039100091
ONEWEB-0341             
1 49207U 21083X   23279.11336494  .00000122  00000+0  27661-3 0  9999
2 49207  87.9298 171.3606 0001383  47.2657 312.8592 13.18688427101456
ONEWEB-0342             
1 49208U 21083Y   23279.05805526  .00000068  00000+0  13628-3 0  9997
2 49208  87.9145 110.6245 0001934  78.9251 281.2100 13.20772835108042
ONEWEB-0343             
1 49209U 21083Z   23278.72977193  .00000113  00000+0  25462-3 0  9991
2 49209  87.9287 171.4667 0001692  37.7009 322.4242 13.18688071100163
ONEWEB-0344             
1 49210U 21083AA  23279.42024943  .00000285  00000+0  74572-3 0  9993
2 49210  87.9046 156.1814 0001554  82.9887 277.1419 13.13468546102921
ONEWEB-0345             
1 49211U 21083AB  23278.90496518  .00000033  00000+0  55438-4 0  9999
2 49211  87.9049 156.2694 0000969  75.4109 284.7127 13.13468425102864
ONEWEB-0346             
1 49212U 21083AC  23279.11757806  .00000122  00000+0  27693-3 0  9994
2 49212  87.9286 171.3816 0001496  88.9745 271.1559 13.18688816101448
ONEWEB-0348             
1 49213U 21083AD  23278.89811785  .00000102  00000+0  21993-3 0  9991
2 49213  87.9146 110.6155 0001023 106.4620 253.6626 13.20774006106759
ONEWEB-0350             
1 49214U 21083AE  23278.91449285 -.00000203  00000+0 -59074-3 0  9992
2 49214  87.8992 156.2717 0001269  76.8214 283.3057 13.13470248101597
ONEWEB-0351             
1 49215U 21083AF  23278.81605782  .00000059  00000+0  11300-3 0  9995
2 49215  87.9152 110.6318 0001921  71.7607 288.3736 13.20771704106709
ONEWEB-0352             
1 49216U 21083AG  23278.89545240  .00000371  00000+0  98215-3 0  9993
2 49216  87.9049 156.2835 0001930  68.1058 292.0277 13.13468878102980
ONEWEB-0354             
1 49217U 21083AH  23278.91704890  .00000060  00000+0  11519-3 0  9992
2 49217  87.9148 110.5940 0001397  75.8368 284.2921 13.20770359106753
ONEWEB-0355             
1 49218U 21083AJ  23279.38424688 -.00000309  00000+0 -88041-3 0  9991
2 49218  87.9048 156.1864 0001639  68.8220 291.3084 13.13468027102924
ONEWEB-0357             
1 49219U 21083AK  23278.91284675  .00000031  00000+0  43447-4 0  9992
2 49219  87.9150 110.6144 0001588  83.4575 276.6739 13.20773458106757
ONEWEB-0332             
1 49279U 21090A   23279.10411925  .00000241  00000+0  61431-3 0  9993
2 49279  87.8957 125.8307 0002034  78.7711 281.3648 13.14505305 98166
ONEWEB-0347             
1 49280U 21090B   23279.51048147 -.00000011  00000+0 -58936-4 0  9996
2 49280  87.9210 110.4455 0002284  83.5303 276.6090 13.20769870101061
ONEWEB-0349             
1 49281U 21090C   23279.46629218  .00000054  00000+0  10205-3 0  9996
2 49281  87.9156 110.4925 0001367  88.1783 271.9507 13.20771905101138
ONEWEB-0353             
1 49282U 21090D   23279.32400827  .00000142  00000+0  34864-3 0  9990
2 49282  87.8958 125.7671 0002067  79.0929 281.0433 13.14505769 99484
ONEWEB-0356             
1 49283U 21090E   23279.08542986 -.00000012  00000+0 -61504-4 0  9997
2 49283  87.9146 110.5734 0002056 117.3573 242.7769 13.20776808101083
ONEWEB-0358             
1 49284U 21090F   23278.81184965  .00000045  00000+0  78098-4 0  9997
2 49284  87.9156 110.6038 0001425  95.6856 264.4439 13.20772844100488
ONEWEB-0359             
1 49285U 21090G   23278.80972236 -.00000221  00000+0 -57460-3 0  9990
2 49285  87.9141 110.6373 0001213  76.2863 283.8405 13.20772354100465
ONEWEB-0360             
1 49286U 21090H   23278.79921997  .00000068  00000+0  13541-3 0  9996
2 49286  87.9149 110.6376 0001565  82.7367 277.3944 13.20772920 99774
ONEWEB-0361             
1 49287U 21090J   23278.93179946  .00000049  00000+0  88442-4 0  9994
2 49287  87.9149 110.6069 0001738  91.0981 269.0352 13.20772558100244
ONEWEB-0362             
1 49288U 21090K   23278.86218389  .00000089  00000+0  19119-3 0  9990
2 49288  87.9218 141.1007 0001771  66.0631 294.0687 13.19724547 97779
ONEWEB-0363             
1 49289U 21090L   23279.10013503  .00000092  00000+0  19329-3 0  9997
2 49289  87.9145 110.5702 0001674 101.1196 259.0126 13.20771925101106
ONEWEB-0364             
1 49290U 21090M   23278.91075663  .00000037  00000+0  58715-4 0  9994
2 49290  87.9156 110.6214 0001925  85.4917 274.6437 13.20772507101388
ONEWEB-0365             
1 49291U 21090N   23279.17492589  .00000124  00000+0  27863-3 0  9990
2 49291  87.9219 141.0271 0001736  74.5303 285.6022 13.19729057 97799
ONEWEB-0366             
1 49292U 21090P   23279.31978654  .00000011  00000+0 -47641-5 0  9993
2 49292  87.8960 125.7740 0001932  84.1914 275.9436 13.14501127 99474
ONEWEB-0367             
1 49293U 21090Q   23279.02227508  .00000086  00000+0  17866-3 0  9992
2 49293  87.9143 110.5803 0002021  86.4653 273.6711 13.20773234101085
ONEWEB-0368             
1 49294U 21090R   23279.07068415  .00000008  00000+0 -11939-4 0  9999
2 49294  87.9154 110.5896 0002518  98.3267 261.8151 13.20772408102242
ONEWEB-0369             
1 49295U 21090S   23279.32181748  .00000086  00000+0  18207-3 0  9992
2 49295  87.9218 140.9920 0001865  79.1666 280.9676 13.19727901 97808
ONEWEB-0370             
1 49296U 21090T   23278.80342510  .00000106  00000+0  22779-3 0  9993
2 49296  87.9145 110.6281 0001682  87.5049 272.6277 13.20770707 99796
ONEWEB-0371             
1 49297U 21090U   23279.32974080 -.00000002  00000+0 -37730-4 0  9996
2 49297  87.9219 140.9794 0001744  76.1143 284.0184 13.19722182 97842
ONEWEB-0372             
1 49298U 21090V   23279.09594416  .00000107  00000+0  23173-3 0  9991
2 49298  87.9155 110.5682 0001923  74.2127 285.9218 13.20772177101105
ONEWEB-0373             
1 49299U 21090W   23278.89601976  .00000043  00000+0  73339-4 0  9998
2 49299  87.9223 110.5766 0001997  95.9781 264.1580 13.20772047100962
ONEWEB-0374             
1 49300U 21090X   23278.85039028 -.00000050  00000+0 -16868-3 0  9993
2 49300  87.8959 125.8576 0001824  83.9314 276.2024 13.14501769 99403
ONEWEB-0375             
1 49301U 21090Y   23279.26217061  .00000129  00000+0  28613-3 0  9991
2 49301  87.9141 110.5381 0001588 113.3514 246.7786 13.20771535101802
ONEWEB-0376             
1 49302U 21090Z   23279.32815232  .00000085  00000+0  18060-3 0  9999
2 49302  87.9221 140.9972 0002004  74.1794 285.9560 13.19726592 97836
ONEWEB-0377             
1 49303U 21090AA  23279.03280099  .00000144  00000+0  32122-3 0  9996
2 49303  87.9143 110.5804 0001587  78.6434 281.4877 13.20772021101751
ONEWEB-0378             
1 49304U 21090AB  23278.92022149  .00003077  00000+0  75336-2 0  9995
2 49304  87.9160 110.6003 0001744  99.1898 260.9432 13.20758062 99721
ONEWEB-0379             
1 49305U 21090AC  23278.84404837 -.00000115  00000+0 -34475-3 0  9997
2 49305  87.8960 125.8597 0001857  82.9492 277.1849 13.14504524 99413
ONEWEB-0380             
1 49306U 21090AD  23279.17334559  .00000149  00000+0  34045-3 0  9996
2 49306  87.9219 141.0233 0001594  77.7717 282.3594 13.19724108 97789
ONEWEB-0381             
1 49307U 21090AE  23278.86656955  .00000155  00000+0  35033-3 0  9994
2 49307  87.9204 110.5663 0001550  86.0257 274.1053 13.20771464 99764
ONEWEB-0382             
1 49308U 21090AF  23279.45997657  .00000005  00000+0 -18638-4 0  9996
2 49308  87.9144 110.4932 0001750 101.2539 258.8791 13.20771515101142
ONEWEB-0383             
1 49309U 21090AG  23279.29441405 -.00000160  00000+0 -46536-3 0  9994
2 49309  87.8968 125.7533 0001892  87.7659 272.3687 13.14501937 99491
ONEWEB-0384             
1 49310U 21090AH  23279.07699644  .00000103  00000+0  22228-3 0  9999
2 49310  87.9155 110.5688 0001968 104.9583 255.1769 13.20772543101109
ONEWEB-0385             
1 49311U 21090AJ  23279.07277605  .00000000  00000+0 -32067-4 0  9999
2 49311  87.9156 110.5718 0001676 100.8258 259.3064 13.20773420101081
ONEWEB-0386             
1 49312U 21090AK  23279.08962110  .00000052  00000+0  94876-4 0  9995
2 49312  87.9148 110.5800 0001791  96.2568 263.8770 13.20771420101098
